start=new Date('2022-10-05T00:00:00.000Z').valueOf();
sats=[{"MEAN_MOTION":"14.98346293","EPOCH":"2022-10-04T06:23:45.808224","GP_ID":"214158939","PERIOD":"96.106","COUNTRY_CODE":"US","NORAD_CAT_ID":"49161","BSTAR":"0.00011629000000","ELEMENT_SET_NO":"999","MEAN_ANOMALY":"114.4694","SEMIMAJOR_AXIS":"6950.143","MEAN_MOTION_DDOT":"0.0000000000000","DECAY_DATE":null,"TIME_SYSTEM":"UTC","REV_AT_EPOCH":"5945","SITE":"AFWTR","OBJECT_TYPE":"PAYLOAD","TLE_LINE1":"1 49161U 21082AH  22277.26650241  .00001295  00000-0  11629-3 0  9999","OBJECT_ID":"2021-082AH","FILE":"3591197","LAUNCH_DATE":"2021-09-14","ARG_OF_PERICENTER":"245.6133","CENTER_NAME":"EARTH","MEAN_ELEMENT_THEORY":"SGP4","APOAPSIS":"574.226","ECCENTRICITY":"0.00031920","REF_FRAME":"TEME","RA_OF_ASC_NODE":"212.2480","MEAN_MOTION_DOT":"0.00001295","RCS_SIZE":"LARGE","OBJECT_NAME":"STARLINK-3080","TLE_LINE2":"2 49161  70.0010 212.2480 0003192 245.6133 114.4694 14.98346293 59450","CLASSIFICATION_TYPE":"U","PERIAPSIS":"569.789","INCLINATION":"70.0010","EPHEMERIS_TYPE":"0"},{"TLE_LINE1":"1 49162U 21082AJ  22277.79103807  .00001410  00000-0  12588-3 0  9993","OBJECT_ID":"2021-082AJ","FILE":"3591597","SITE":"AFWTR","OBJECT_TYPE":"PAYLOAD","MEAN_MOTION_DDOT":"0.0000000000000","DECAY_DATE":null,"TIME_SYSTEM":"UTC","REV_AT_EPOCH":"5961","SEMIMAJOR_AXIS":"6950.162","MEAN_ANOMALY":"103.3802","PERIOD":"96.106","BSTAR":"0.00012588000000","COUNTRY_CODE":"US","NORAD_CAT_ID":"49162","ELEMENT_SET_NO":"999","GP_ID":"214191577","EPOCH":"2022-10-04T18:59:05.689248","MEAN_MOTION":"14.98339922","EPHEMERIS_TYPE":"0","CLASSIFICATION_TYPE":"U","PERIAPSIS":"569.799","INCLINATION":"70.0011","RA_OF_ASC_NODE":"210.9284","MEAN_MOTION_DOT":"0.00001410","RCS_SIZE":"LARGE","OBJECT_NAME":"STARLINK-3082","TLE_LINE2":"2 49162  70.0011 210.9284 0003206 256.6999 103.3802 14.98339922 59614","ECCENTRICITY":"0.00032060","REF_FRAME":"TEME","CENTER_NAME":"EARTH","APOAPSIS":"574.255","MEAN_ELEMENT_THEORY":"SGP4","LAUNCH_DATE":"2021-09-14","ARG_OF_PERICENTER":"256.6999"},{"PERIOD":"96.105","COUNTRY_CODE":"US","NORAD_CAT_ID":"49163","BSTAR":"0.00091262000000","ELEMENT_SET_NO":"999","MEAN_ANOMALY":"108.0088","SEMIMAJOR_AXIS":"6950.113","MEAN_MOTION":"14.98355716","EPOCH":"2022-10-04T05:30:43.925184","GP_ID":"214160441","TLE_LINE1":"1 49163U 21082AK  22277.22967506  .00010820  00000-0  91262-3 0  9997","OBJECT_ID":"2021-082AK","FILE":"3591197","MEAN_MOTION_DDOT":"0.0000000000000","DECAY_DATE":null,"TIME_SYSTEM":"UTC","REV_AT_EPOCH":"6002","SITE":"AFWTR","OBJECT_TYPE":"PAYLOAD","CENTER_NAME":"EARTH","APOAPSIS":"574.148","MEAN_ELEMENT_THEORY":"SGP4","LAUNCH_DATE":"2021-09-14","ARG_OF_PERICENTER":"252.0730","CLASSIFICATION_TYPE":"U","PERIAPSIS":"569.809","INCLINATION":"70.0016","EPHEMERIS_TYPE":"0","ECCENTRICITY":"0.00031220","REF_FRAME":"TEME","RA_OF_ASC_NODE":"192.3546","OBJECT_NAME":"STARLINK-3088","RCS_SIZE":"LARGE","MEAN_MOTION_DOT":"0.00010820","TLE_LINE2":"2 49163  70.0016 192.3546 0003122 252.0730 108.0088 14.98355716 60028"},{"EPHEMERIS_TYPE":"0","CLASSIFICATION_TYPE":"U","PERIAPSIS":"569.781","INCLINATION":"70.0015","TLE_LINE2":"2 49164  70.0015 192.3719 0003186 252.8609 107.2201 14.98350097 60039","RA_OF_ASC_NODE":"192.3719","OBJECT_NAME":"STARLINK-3106","RCS_SIZE":"LARGE","MEAN_MOTION_DOT":"0.00009571","REF_FRAME":"TEME","ECCENTRICITY":"0.00031860","APOAPSIS":"574.210","MEAN_ELEMENT_THEORY":"SGP4","CENTER_NAME":"EARTH","ARG_OF_PERICENTER":"252.8609","LAUNCH_DATE":"2021-09-14","FILE":"3591197","TLE_LINE1":"1 49164U 21082AL  22277.22013625  .00009571  00000-0  80841-3 0  9994","OBJECT_ID":"2021-082AL","OBJECT_TYPE":"PAYLOAD","SITE":"AFWTR","REV_AT_EPOCH":"6003","MEAN_MOTION_DDOT":"0.0000000000000","DECAY_DATE":null,"TIME_SYSTEM":"UTC","SEMIMAJOR_AXIS":"6950.131","MEAN_ANOMALY":"107.2201","BSTAR":"0.00080841000000","COUNTRY_CODE":"US","ELEMENT_SET_NO":"999","NORAD_CAT_ID":"49164","PERIOD":"96.106","EPOCH":"2022-10-04T05:16:59.772000","GP_ID":"214160176","MEAN_MOTION":"14.98350097"},{"MEAN_ELEMENT_THEORY":"SGP4","APOAPSIS":"574.181","CENTER_NAME":"EARTH","ARG_OF_PERICENTER":"256.1711","LAUNCH_DATE":"2021-09-14","INCLINATION":"70.0012","PERIAPSIS":"569.807","CLASSIFICATION_TYPE":"U","EPHEMERIS_TYPE":"0","REF_FRAME":"TEME","ECCENTRICITY":"0.00031470","TLE_LINE2":"2 49165  70.0012 211.6149 0003147 256.1711 103.9098 14.98350703 59610","RCS_SIZE":"LARGE","MEAN_MOTION_DOT":"0.00006283","OBJECT_NAME":"STARLINK-3052","RA_OF_ASC_NODE":"211.6149","COUNTRY_CODE":"US","BSTAR":"0.00053361000000","ELEMENT_SET_NO":"999","NORAD_CAT_ID":"49165","PERIOD":"96.106","SEMIMAJOR_AXIS":"6950.129","MEAN_ANOMALY":"103.9098","MEAN_MOTION":"14.98350703","GP_ID":"214159440","EPOCH":"2022-10-04T12:27:41.001120","FILE":"3591197","OBJECT_ID":"2021-082AM","TLE_LINE1":"1 49165U 21082AM  22277.51922455  .00006283  00000-0  53361-3 0  9991","REV_AT_EPOCH":"5961","TIME_SYSTEM":"UTC","DECAY_DATE":null,"MEAN_MOTION_DDOT":"0.0000000000000","OBJECT_TYPE":"PAYLOAD","SITE":"AFWTR"},{"FILE":"3591197","OBJECT_ID":"2021-082AN","TLE_LINE1":"1 49166U 21082AN  22277.49194803  .00004632  00000-0  39561-3 0  9999","REV_AT_EPOCH":"6010","DECAY_DATE":null,"TIME_SYSTEM":"UTC","MEAN_MOTION_DDOT":"0.0000000000000","OBJECT_TYPE":"PAYLOAD","SITE":"AFWTR","ELEMENT_SET_NO":"999","COUNTRY_CODE":"US","BSTAR":"0.00039561000000","NORAD_CAT_ID":"49166","PERIOD":"96.106","SEMIMAJOR_AXIS":"6950.148","MEAN_ANOMALY":"98.4551","MEAN_MOTION":"14.98344563","GP_ID":"214159690","EPOCH":"2022-10-04T11:48:24.309792","PERIAPSIS":"570.065","INCLINATION":"70.0036","CLASSIFICATION_TYPE":"U","EPHEMERIS_TYPE":"0","REF_FRAME":"TEME","ECCENTRICITY":"0.00028020","TLE_LINE2":"2 49166  70.0036 191.6806 0002802 261.6290  98.4551 14.98344563 60109","MEAN_MOTION_DOT":"0.00004632","RCS_SIZE":"LARGE","OBJECT_NAME":"STARLINK-3089","RA_OF_ASC_NODE":"191.6806","APOAPSIS":"573.960","MEAN_ELEMENT_THEORY":"SGP4","CENTER_NAME":"EARTH","ARG_OF_PERICENTER":"261.6290","LAUNCH_DATE":"2021-09-14"},{"OBJECT_ID":"2021-082AP","TLE_LINE1":"1 49167U 21082AP  22277.24742457  .00005026  00000-0  42847-3 0  9996","FILE":"3591197","TIME_SYSTEM":"UTC","DECAY_DATE":null,"MEAN_MOTION_DDOT":"0.0000000000000","REV_AT_EPOCH":"5957","SITE":"AFWTR","OBJECT_TYPE":"PAYLOAD","PERIOD":"96.106","NORAD_CAT_ID":"49167","COUNTRY_CODE":"US","BSTAR":"0.00042847000000","ELEMENT_SET_NO":"999","MEAN_ANOMALY":"117.7408","SEMIMAJOR_AXIS":"6950.139","MEAN_MOTION":"14.98347382","EPOCH":"2022-10-04T05:56:17.482848","GP_ID":"214159941","PERIAPSIS":"569.516","INCLINATION":"70.0010","CLASSIFICATION_TYPE":"U","EPHEMERIS_TYPE":"0","ECCENTRICITY":"0.00035800","REF_FRAME":"TEME","OBJECT_NAME":"STARLINK-3054","RCS_SIZE":"LARGE","MEAN_MOTION_DOT":"0.00005026","RA_OF_ASC_NODE":"212.3014","TLE_LINE2":"2 49167  70.0010 212.3014 0003580 242.3388 117.7408 14.98347382 59579","CENTER_NAME":"EARTH","APOAPSIS":"574.492","MEAN_ELEMENT_THEORY":"SGP4","LAUNCH_DATE":"2021-09-14","ARG_OF_PERICENTER":"242.3388"},{"SITE":"AFWTR","OBJECT_TYPE":"PAYLOAD","TIME_SYSTEM":"UTC","DECAY_DATE":null,"MEAN_MOTION_DDOT":"0.0000000000000","REV_AT_EPOCH":"6006","OBJECT_ID":"2021-082AQ","TLE_LINE1":"1 49168U 21082AQ  22277.21059232  .00002497  00000-0  21694-3 0  9992","FILE":"3591197","GP_ID":"214160677","EPOCH":"2022-10-04T05:03:15.176448","MEAN_MOTION":"14.98343916","MEAN_ANOMALY":"107.2541","SEMIMAJOR_AXIS":"6950.150","PERIOD":"96.106","ELEMENT_SET_NO":"999","COUNTRY_CODE":"US","BSTAR":"0.00021694000000","NORAD_CAT_ID":"49168","MEAN_MOTION_DOT":"0.00002497","RCS_SIZE":"LARGE","OBJECT_NAME":"STARLINK-3101","RA_OF_ASC_NODE":"192.3952","TLE_LINE2":"2 49168  70.0009 192.3952 0003373 252.8248 107.2541 14.98343916 60064","ECCENTRICITY":"0.00033730","REF_FRAME":"TEME","EPHEMERIS_TYPE":"0","INCLINATION":"70.0009","PERIAPSIS":"569.671","CLASSIFICATION_TYPE":"U","LAUNCH_DATE":"2021-09-14","ARG_OF_PERICENTER":"252.8248","CENTER_NAME":"EARTH","APOAPSIS":"574.359","MEAN_ELEMENT_THEORY":"SGP4"},{"CENTER_NAME":"EARTH","MEAN_ELEMENT_THEORY":"SGP4","APOAPSIS":"573.888","LAUNCH_DATE":"2021-09-14","ARG_OF_PERICENTER":"246.8702","INCLINATION":"70.0025","PERIAPSIS":"570.156","CLASSIFICATION_TYPE":"U","EPHEMERIS_TYPE":"0","ECCENTRICITY":"0.00026850","REF_FRAME":"TEME","MEAN_MOTION_DOT":"0.00001755","RCS_SIZE":"LARGE","OBJECT_NAME":"STARLINK-3046","RA_OF_ASC_NODE":"190.8711","TLE_LINE2":"2 49169  70.0025 190.8711 0002685 246.8702 113.2174 14.98341682 60160","PERIOD":"96.106","BSTAR":"0.00015478000000","COUNTRY_CODE":"US","NORAD_CAT_ID":"49169","ELEMENT_SET_NO":"999","MEAN_ANOMALY":"113.2174","SEMIMAJOR_AXIS":"6950.157","MEAN_MOTION":"14.98341682","GP_ID":"214164348","EPOCH":"2022-10-04T19:35:20.118048","OBJECT_ID":"2021-082AR","TLE_LINE1":"1 49169U 21082AR  22277.81620507  .00001755  00000-0  15478-3 0  9997","FILE":"3591325","TIME_SYSTEM":"UTC","DECAY_DATE":null,"MEAN_MOTION_DDOT":"0.0000000000000","REV_AT_EPOCH":"6016","SITE":"AFWTR","OBJECT_TYPE":"PAYLOAD"},{"CENTER_NAME":"EARTH","MEAN_ELEMENT_THEORY":"SGP4","APOAPSIS":"574.344","LAUNCH_DATE":"2021-09-14","ARG_OF_PERICENTER":"253.2484","EPHEMERIS_TYPE":"0","CLASSIFICATION_TYPE":"U","PERIAPSIS":"569.672","INCLINATION":"70.0018","RA_OF_ASC_NODE":"212.3554","RCS_SIZE":"LARGE","OBJECT_NAME":"STARLINK-3074","MEAN_MOTION_DOT":"0.00006472","TLE_LINE2":"2 49170  70.0018 212.3554 0003361 253.2484 106.8307 14.98346196 58371","ECCENTRICITY":"0.00033610","REF_FRAME":"TEME","MEAN_ANOMALY":"106.8307","SEMIMAJOR_AXIS":"6950.143","PERIOD":"96.106","BSTAR":"0.00054945000000","COUNTRY_CODE":"US","NORAD_CAT_ID":"49170","ELEMENT_SET_NO":"999","EPOCH":"2022-10-04T05:19:00.045984","GP_ID":"214159190","MEAN_MOTION":"14.98346196","TLE_LINE1":"1 49170U 21082AS  22277.22152831  .00006472  00000-0  54945-3 0  9997","OBJECT_ID":"2021-082AS","FILE":"3591197","SITE":"AFWTR","OBJECT_TYPE":"PAYLOAD","MEAN_MOTION_DDOT":"0.0000000000000","DECAY_DATE":null,"TIME_SYSTEM":"UTC","REV_AT_EPOCH":"5837"}];
